ONEWEB-0045             
1 45151U 20008W   24119.56213973 -.00000389  00000+0 -11342-2 0  9993
2 45151  87.9004 176.1186 0002110 102.7217 257.4146 13.11416493208226
ONEWEB-0047             
1 45152U 20008X   24119.46267203 -.00000495  00000+0 -14546-2 0  9995
2 45152  87.8988 191.2423 0002028 100.2298 259.9058 13.10373441206084
ONEWEB-0048             
1 45153U 20008Y   24119.61041137 -.00000621  00000+0 -18147-2 0  9991
2 45153  87.8988 191.2279 0002014  99.2669 260.8686 13.10372192205717
ONEWEB-0049             
1 45154U 20008Z   24119.61207155 -.00000616  00000+0 -18012-2 0  9991
2 45154  87.8992 191.2051 0002132  85.2405 274.8966 13.10372293205937
ONEWEB-0051             
1 45155U 20008AA  24119.56051238 -.00000420  00000+0 -12200-2 0  9991
2 45155  87.9003 176.1603 0002260 102.6579 257.4801 13.11416032208901
ONEWEB-0052             
1 45156U 20008AB  24119.60875868 -.00000709  00000+0 -20674-2 0  9994
2 45156  87.8983 191.1810 0002002  85.1175 275.0181 13.10372674205845
ONEWEB-0053             
1 45157U 20008AC  24119.59050539  .00000054  00000+0  11975-3 0  9999
2 45157  87.8982 191.2359 0002027  97.1891 262.9467 13.10369192205819
ONEWEB-0054             
1 45158U 20008AD  24119.47266451 -.00000116  00000+0 -36864-3 0  9994
2 45158  87.8990 191.2417 0002170 101.3598 258.7773 13.10378516205919
